[{"OBJECT_NAME":"UNKNOWN","OBJECT_ID":"","EPOCH":"2026-03-02T02:12:07.356384","MEAN_MOTION":2.62653933,"ECCENTRICITY":0.6890498,"INCLINATION":9.3107,"RA_OF_ASC_NODE":299.792,"ARG_OF_PERICENTER":164.3464,"MEAN_ANOMALY":238.4347,"EPHEMERIS_TYPE":0,"CLASSIFICATION_TYPE":"U","NORAD_CAT_ID":84236,"ELEMENT_SET_NO":999,"REV_AT_EPOCH":11606,"BSTAR":0.0059819,"MEAN_MOTION_DOT":9.4e-6,"MEAN_MOTION_DDOT":0},{"OBJECT_NAME":"UNKNOWN","OBJECT_ID":"","EPOCH":"2026-03-07T01:23:16.936224","MEAN_MOTION":6.2225114,"ECCENTRICITY":0.4553858,"INCLINATION":23.8348,"RA_OF_ASC_NODE":43.5049,"ARG_OF_PERICENTER":83.1965,"MEAN_ANOMALY":324.9266,"EPHEMERIS_TYPE":0,"CLASSIFICATION_TYPE":"U","NORAD_CAT_ID":84292,"ELEMENT_SET_NO":999,"REV_AT_EPOCH":23331,"BSTAR":0.0026116,"MEAN_MOTION_DOT":4.25e-5,"MEAN_MOTION_DDOT":0},{"OBJECT_NAME":"UNKNOWN","OBJECT_ID":"","EPOCH":"2026-03-06T23:45:30.241440","MEAN_MOTION":2.05796842,"ECCENTRICITY":0.7210526,"INCLINATION":19.4486,"RA_OF_ASC_NODE":297.7244,"ARG_OF_PERICENTER":107.0166,"MEAN_ANOMALY":337.4076,"EPHEMERIS_TYPE":0,"CLASSIFICATION_TYPE":"U","NORAD_CAT_ID":84407,"ELEMENT_SET_NO":999,"REV_AT_EPOCH":7760,"BSTAR":0.01181,"MEAN_MOTION_DOT":4.0e-7,"MEAN_MOTION_DDOT":0},{"OBJECT_NAME":"UNKNOWN","OBJECT_ID":"","EPOCH":"2026-03-03T08:05:14.544096","MEAN_MOTION":2.19867114,"ECCENTRICITY":0.7115404,"INCLINATION":18.0132,"RA_OF_ASC_NODE":131.5702,"ARG_OF_PERICENTER":71.7416,"MEAN_ANOMALY":349.0642,"EPHEMERIS_TYPE":0,"CLASSIFICATION_TYPE":"U","NORAD_CAT_ID":84575,"ELEMENT_SET_NO":999,"REV_AT_EPOCH":6723,"BSTAR":0.0051095,"MEAN_MOTION_DOT":-7.2e-7,"MEAN_MOTION_DDOT":0},{"OBJECT_NAME":"UNKNOWN","OBJECT_ID":"","EPOCH":"2026-03-07T04:56:34.589760","MEAN_MOTION":3.00138177,"ECCENTRICITY":0.6576451,"INCLINATION":2.0492,"RA_OF_ASC_NODE":193.1045,"ARG_OF_PERICENTER":152.0769,"MEAN_ANOMALY":120.3079,"EPHEMERIS_TYPE":0,"CLASSIFICATION_TYPE":"U","NORAD_CAT_ID":84932,"ELEMENT_SET_NO":999,"REV_AT_EPOCH":13431,"BSTAR":0.0088395,"MEAN_MOTION_DOT":1.11e-5,"MEAN_MOTION_DDOT":0},{"OBJECT_NAME":"UNKNOWN","OBJECT_ID":"","EPOCH":"2026-03-05T09:45:01.372896","MEAN_MOTION":14.41342709,"ECCENTRICITY":0.0045519,"INCLINATION":98.4334,"RA_OF_ASC_NODE":39.2805,"ARG_OF_PERICENTER":274.3346,"MEAN_ANOMALY":238.2787,"EPHEMERIS_TYPE":0,"CLASSIFICATION_TYPE":"U","NORAD_CAT_ID":85004,"ELEMENT_SET_NO":999,"REV_AT_EPOCH":64280,"BSTAR":0.00052142,"MEAN_MOTION_DOT":1.664e-5,"MEAN_MOTION_DDOT":0},{"OBJECT_NAME":"UNKNOWN","OBJECT_ID":"","EPOCH":"2026-02-27T02:23:30.679296","MEAN_MOTION":13.75239596,"ECCENTRICITY":0.0026672,"INCLINATION":99.2482,"RA_OF_ASC_NODE":282.6795,"ARG_OF_PERICENTER":51.5718,"MEAN_ANOMALY":101.6401,"EPHEMERIS_TYPE":0,"CLASSIFICATION_TYPE":"U","NORAD_CAT_ID":85010,"ELEMENT_SET_NO":999,"REV_AT_EPOCH":61441,"BSTAR":0.0010809,"MEAN_MOTION_DOT":9.96e-6,"MEAN_MOTION_DDOT":0},{"OBJECT_NAME":"UNKNOWN","OBJECT_ID":"","EPOCH":"2026-03-06T03:58:25.433760","MEAN_MOTION":14.62409823,"ECCENTRICITY":0.00141,"INCLINATION":74.0477,"RA_OF_ASC_NODE":238.5458,"ARG_OF_PERICENTER":126.0519,"MEAN_ANOMALY":234.1957,"EPHEMERIS_TYPE":0,"CLASSIFICATION_TYPE":"U","NORAD_CAT_ID":85015,"ELEMENT_SET_NO":999,"REV_AT_EPOCH":65480,"BSTAR":0.00014888,"MEAN_MOTION_DOT":7.24e-6,"MEAN_MOTION_DDOT":0},{"OBJECT_NAME":"UNKNOWN","OBJECT_ID":"","EPOCH":"2026-03-07T08:20:18.130848","MEAN_MOTION":14.80023904,"ECCENTRICITY":0.0002579,"INCLINATION":99.8383,"RA_OF_ASC_NODE":105.3512,"ARG_OF_PERICENTER":111.1818,"MEAN_ANOMALY":314.2827,"EPHEMERIS_TYPE":0,"CLASSIFICATION_TYPE":"U","NORAD_CAT_ID":85023,"ELEMENT_SET_NO":999,"REV_AT_EPOCH":64132,"BSTAR":0.0056322,"MEAN_MOTION_DOT":0.00042831,"MEAN_MOTION_DDOT":0},{"OBJECT_NAME":"UNKNOWN","OBJECT_ID":"","EPOCH":"2026-03-07T05:11:27.142368","MEAN_MOTION":13.74283918,"ECCENTRICITY":0.0170378,"INCLINATION":66.0395,"RA_OF_ASC_NODE":254.6404,"ARG_OF_PERICENTER":145.1942,"MEAN_ANOMALY":216.0409,"EPHEMERIS_TYPE":0,"CLASSIFICATION_TYPE":"U","NORAD_CAT_ID":85027,"ELEMENT_SET_NO":999,"REV_AT_EPOCH":61622,"BSTAR":0.00029336,"MEAN_MOTION_DOT":2.29e-6,"MEAN_MOTION_DDOT":0},{"OBJECT_NAME":"UNKNOWN","OBJECT_ID":"","EPOCH":"2026-03-06T21:14:57.319296","MEAN_MOTION":13.46608113,"ECCENTRICITY":0.0107126,"INCLINATION":102.1703,"RA_OF_ASC_NODE":53.979,"ARG_OF_PERICENTER":191.5163,"MEAN_ANOMALY":168.3506,"EPHEMERIS_TYPE":0,"CLASSIFICATION_TYPE":"U","NORAD_CAT_ID":85047,"ELEMENT_SET_NO":999,"REV_AT_EPOCH":58797,"BSTAR":0.019405,"MEAN_MOTION_DOT":0.00012078,"MEAN_MOTION_DDOT":0},{"OBJECT_NAME":"UNKNOWN","OBJECT_ID":"","EPOCH":"2026-03-06T11:34:01.888320","MEAN_MOTION":12.77662769,"ECCENTRICITY":0.0272237,"INCLINATION":102.3995,"RA_OF_ASC_NODE":61.9677,"ARG_OF_PERICENTER":26.5958,"MEAN_ANOMALY":123.8952,"EPHEMERIS_TYPE":0,"CLASSIFICATION_TYPE":"U","NORAD_CAT_ID":85061,"ELEMENT_SET_NO":999,"REV_AT_EPOCH":56647,"BSTAR":0.01816,"MEAN_MOTION_DOT":4.62e-5,"MEAN_MOTION_DDOT":0},{"OBJECT_NAME":"UNKNOWN","OBJECT_ID":"","EPOCH":"2026-03-05T17:01:51.270816","MEAN_MOTION":14.40792056,"ECCENTRICITY":0.0013914,"INCLINATION":74.0437,"RA_OF_ASC_NODE":69.3856,"ARG_OF_PERICENTER":276.2175,"MEAN_ANOMALY":202.6613,"EPHEMERIS_TYPE":0,"CLASSIFICATION_TYPE":"U","NORAD_CAT_ID":85100,"ELEMENT_SET_NO":999,"REV_AT_EPOCH":64529,"BSTAR":0.00017157,"MEAN_MOTION_DOT":5.23e-6,"MEAN_MOTION_DDOT":0},{"OBJECT_NAME":"UNKNOWN","OBJECT_ID":"","EPOCH":"2026-03-07T14:09:26.883936","MEAN_MOTION":13.73028914,"ECCENTRICITY":0.0010787,"INCLINATION":100.0526,"RA_OF_ASC_NODE":176.622,"ARG_OF_PERICENTER":155.352,"MEAN_ANOMALY":220.951,"EPHEMERIS_TYPE":0,"CLASSIFICATION_TYPE":"U","NORAD_CAT_ID":85106,"ELEMENT_SET_NO":999,"REV_AT_EPOCH":61471,"BSTAR":0.00093825,"MEAN_MOTION_DOT":8.18e-6,"MEAN_MOTION_DDOT":0},{"OBJECT_NAME":"UNKNOWN","OBJECT_ID":"","EPOCH":"2026-03-07T10:33:08.140320","MEAN_MOTION":14.83007447,"ECCENTRICITY":0.0006537,"INCLINATION":98.3991,"RA_OF_ASC_NODE":299.4805,"ARG_OF_PERICENTER":234.9654,"MEAN_ANOMALY":125.0945,"EPHEMERIS_TYPE":0,"CLASSIFICATION_TYPE":"U","NORAD_CAT_ID":85151,"ELEMENT_SET_NO":999,"REV_AT_EPOCH":49206,"BSTAR":0.0043236,"MEAN_MOTION_DOT":0.00035268,"MEAN_MOTION_DDOT":0},{"OBJECT_NAME":"UNKNOWN","OBJECT_ID":"","EPOCH":"2026-03-05T21:25:18.162048","MEAN_MOTION":13.71668276,"ECCENTRICITY":0.0216849,"INCLINATION":99.8615,"RA_OF_ASC_NODE":213.1738,"ARG_OF_PERICENTER":101.9762,"MEAN_ANOMALY":49.0334,"EPHEMERIS_TYPE":0,"CLASSIFICATION_TYPE":"U","NORAD_CAT_ID":85210,"ELEMENT_SET_NO":999,"REV_AT_EPOCH":61355,"BSTAR":0.00035085,"MEAN_MOTION_DOT":3.29e-6,"MEAN_MOTION_DDOT":0},{"OBJECT_NAME":"UNKNOWN","OBJECT_ID":"","EPOCH":"2026-03-05T16:46:23.317536","MEAN_MOTION":14.37620653,"ECCENTRICITY":0.0206229,"INCLINATION":98.023,"RA_OF_ASC_NODE":158.6754,"ARG_OF_PERICENTER":237.2697,"MEAN_ANOMALY":120.8464,"EPHEMERIS_TYPE":0,"CLASSIFICATION_TYPE":"U","NORAD_CAT_ID":85217,"ELEMENT_SET_NO":999,"REV_AT_EPOCH":63977,"BSTAR":0.0010814,"MEAN_MOTION_DOT":4.105e-5,"MEAN_MOTION_DDOT":0}]
